STARLINK-33660          
1 63278U 25053P   26068.51415663  .00031221  00000+0  11391-2 0  9999
2 63278  42.9984 243.0212 0001217 244.6638 115.4088 15.27583970 56164
BANDWAGON-4 OBJECT P    
1 66306U 25248P   26067.98083108  .00022647  00000+0  92291-3 0  9996
2 66306  45.4037 295.4322 0012078 209.3167 150.7044 15.24098352 19290
